{"type":"FeatureCollection","features":[{"type":"Feature","geometry":{"type":"MultiPolygon","coordinates":[[[[-73.98609,40.74892],[-73.98482,40.74839],[-73.98491,40.74827],[-73.98503,40.74811],[-73.98516,40.74793],[-73.98649,40.74849],[-73.98647,40.74852],[-73.98668,40.74861],[-73.98656,40.74878],[-73.98636,40.7487],[-73.98635,40.74872],[-73.98633,40.74871],[-73.98631,40.74873],[-73.98615,40.74895],[-73.98609,40.74892]]]]},"properties":{"id":"empire-state","y":1931,"h":1238.8}},{"type":"Feature","geometry":{"type":"MultiPolygon","coordinates":[[[[-73.97519,40.75143],[-73.97532,40.7513],[-73.9755,40.75137],[-73.97583,40.75151],[-73.97584,40.75152],[-73.97573,40.75167],[-73.97549,40.752],[-73.97548,40.75199],[-73.97517,40.75186],[-73.97485,40.75173],[-73.9749,40.75166],[-73.97511,40.7515],[-73.97511,40.7515],[-73.97519,40.75143]]]]},"properties":{"id":"chrysler","y":1930,"h":947}},{"type":"Feature","geometry":{"type":"MultiPolygon","coordinates":[[[[-73.98957,40.74131],[-73.98956,40.74131],[-73.98952,40.74136],[-73.98952,40.74136],[-73.98952,40.74137],[-73.98952,40.74137],[-73.98951,40.74137],[-73.98951,40.74136],[-73.98951,40.74136],[-73.98951,40.74136],[-73.98951,40.74136],[-73.98952,40.7413],[-73.98952,40.7413],[-73.98951,40.74129],[-73.98951,40.74129],[-73.9895,40.74127],[-73.9895,40.74127],[-73.98957,40.74078],[-73.98957,40.74078],[-73.98958,40.74078],[-73.98958,40.74078],[-73.98958,40.74077],[-73.98959,40.74077],[-73.98959,40.74077],[-73.9896,40.74077],[-73.9896,40.74077],[-73.98961,40.74077],[-73.98961,40.74077],[-73.98961,40.74077],[-73.98962,40.74077],[-73.98962,40.74077],[-73.98963,40.74078],[-73.98986,40.74087],[-73.98986,40.74088],[-73.98986,40.74088],[-73.98987,40.74088],[-73.98987,40.74089],[-73.98987,40.74089],[-73.98987,40.74089],[-73.98987,40.7409],[-73.98987,40.7409],[-73.98987,40.74091],[-73.98987,40.74091],[-73.98987,40.74092],[-73.98959,40.7413],[-73.98958,40.7413],[-73.98958,40.7413],[-73.98957,40.7413],[-73.98957,40.74131]]]]},"properties":{"id":"flatiron","y":1903,"h":300.3}},{"type":"Feature","geometry":{"type":"MultiPolygon","coordinates":[[[[-73.97656,40.7528],[-73.9769,40.75234],[-73.97693,40.75235],[-73.97704,40.7522],[-73.97793,40.75257],[-73.97781,40.75273],[-73.97785,40.75274],[-73.97746,40.75327],[-73.97652,40.75287],[-73.97652,40.75287],[-73.97656,40.7528]]]]},"properties":{"id":"grand-central","y":null,"h":150.4}},{"type":"Feature","geometry":{"type":"MultiPolygon","coordinates":[[[[-74.00877,40.71243],[-74.00867,40.71255],[-74.00859,40.71251],[-74.00838,40.71242],[-74.00831,40.71251],[-74.0086,40.71264],[-74.00852,40.71274],[-74.0085,40.71277],[-74.00805,40.71256],[-74.00791,40.7125],[-74.00809,40.71226],[-74.00817,40.71216],[-74.00823,40.71218],[-74.00836,40.71224],[-74.00877,40.71243]]]]},"properties":{"id":"woolworth","y":1913,"h":780}},{"type":"Feature","geometry":{"type":"MultiPolygon","coordinates":[[[[-73.97862,40.75817],[-73.97868,40.75809],[-73.97873,40.75801],[-73.97881,40.75791],[-73.97872,40.75787],[-73.97878,40.7578],[-73.97885,40.7577],[-73.97916,40.75783],[-73.97921,40.75785],[-73.97901,40.75812],[-73.97889,40.75829],[-73.97869,40.7582],[-73.97862,40.75817]]]]},"properties":{"id":"rockefeller","y":1937,"h":422.7}},{"type":"Feature","geometry":{"type":"MultiPolygon","coordinates":[[[[-73.97773,40.75812],[-73.97777,40.75806],[-73.97817,40.75823],[-73.97839,40.75832],[-73.97839,40.75833],[-73.97827,40.75849],[-73.97814,40.75844],[-73.978,40.75837],[-73.97772,40.75826],[-73.97765,40.75823],[-73.97773,40.75812]]]]},"properties":{"id":"rockefeller","y":1937,"h":129.9}},{"type":"Feature","geometry":{"type":"MultiPolygon","coordinates":[[[[-73.97799,40.75775],[-73.97812,40.7578],[-73.97831,40.75788],[-73.97837,40.7578],[-73.9785,40.75786],[-73.97856,40.75788],[-73.97848,40.758],[-73.97839,40.75812],[-73.97838,40.75813],[-73.97838,40.75813],[-73.97836,40.75812],[-73.97827,40.75808],[-73.97787,40.75792],[-73.97787,40.75791],[-73.97799,40.75775]]]]},"properties":{"id":"rockefeller","y":1932,"h":184.4}},{"type":"Feature","geometry":{"type":"MultiPolygon","coordinates":[[[[-74.01303,40.71263],[-74.01367,40.7129],[-74.01331,40.71339],[-74.01268,40.71312],[-74.01303,40.71263]]]]},"properties":{"id":"one-wtc","y":2009,"h":1408.4}},{"type":"Feature","geometry":{"type":"MultiPolygon","coordinates":[[[[-73.99652,40.70965],[-73.9966,40.70957],[-73.99659,40.70954],[-73.9966,40.70954],[-73.99658,40.70946],[-73.99657,40.70946],[-73.99656,40.70944],[-73.99645,40.70938],[-73.99649,40.70933],[-73.99651,40.70931],[-73.99663,40.70937],[-73.99668,40.70936],[-73.99676,40.70928],[-73.99685,40.70932],[-73.99677,40.70941],[-73.99678,40.70943],[-73.99675,40.70943],[-73.99677,40.70951],[-73.99677,40.70951],[-73.99679,40.70951],[-73.9968,40.70951],[-73.9968,40.70951],[-73.99681,40.70953],[-73.99692,40.70959],[-73.99686,40.70966],[-73.99674,40.70961],[-73.99669,40.70961],[-73.99662,40.7097],[-73.99652,40.70965]]]]},"properties":{"id":"brooklyn-bridge","y":1950,"h":152.1}},{"type":"Feature","geometry":{"type":"MultiPolygon","coordinates":[[[[-73.95868,40.78293],[-73.9587,40.7829],[-73.9588,40.78277],[-73.9588,40.78277],[-73.95883,40.78279],[-73.95889,40.78271],[-73.9589,40.78271],[-73.9589,40.7827],[-73.9589,40.7827],[-73.9589,40.7827],[-73.9589,40.7827],[-73.95891,40.7827],[-73.95891,40.78271],[-73.95905,40.78277],[-73.95906,40.78277],[-73.95907,40.78277],[-73.95908,40.78278],[-73.95909,40.78279],[-73.9591,40.78279],[-73.95911,40.7828],[-73.95912,40.78281],[-73.95913,40.78281],[-73.95914,40.78282],[-73.95915,40.78283],[-73.95919,40.78285],[-73.95919,40.78285],[-73.95919,40.78286],[-73.9592,40.78286],[-73.9592,40.78287],[-73.95921,40.78288],[-73.95921,40.78288],[-73.95921,40.78289],[-73.95921,40.78289],[-73.95921,40.7829],[-73.95921,40.78291],[-73.95921,40.78291],[-73.95921,40.78292],[-73.95921,40.78293],[-73.95921,40.78293],[-73.9592,40.78293],[-73.95918,40.78294],[-73.95918,40.78295],[-73.95918,40.78296],[-73.95917,40.78297],[-73.95917,40.78298],[-73.95916,40.78299],[-73.95916,40.783],[-73.95915,40.78301],[-73.95914,40.78302],[-73.95914,40.78303],[-73.95913,40.78304],[-73.95912,40.78304],[-73.95911,40.78305],[-73.9591,40.78306],[-73.95909,40.78306],[-73.95908,40.78307],[-73.95906,40.78307],[-73.95905,40.78308],[-73.95904,40.78308],[-73.95902,40.78311],[-73.95897,40.78318],[-73.95887,40.78332],[-73.95859,40.7832],[-73.95859,40.7832],[-73.95856,40.78319],[-73.95865,40.78307],[-73.95873,40.78295],[-73.95868,40.78293]]]]},"properties":{"id":"guggenheim","y":1959,"h":136.5}},{"type":"Feature","geometry":{"type":"MultiPolygon","coordinates":[[[[-73.96304,40.78071],[-73.96293,40.78067],[-73.9629,40.78071],[-73.96291,40.78072],[-73.96286,40.78078],[-73.9628,40.78075],[-73.96285,40.78068],[-73.96283,40.78067],[-73.96282,40.78069],[-73.96278,40.78067],[-73.96219,40.78042],[-73.9622,40.78041],[-73.96221,40.7804],[-73.96219,40.7804],[-73.96219,40.78041],[-73.96214,40.78047],[-73.96214,40.78047],[-73.96213,40.78046],[-73.96212,40.78046],[-73.96211,40.78046],[-73.96211,40.78045],[-73.9621,40.78045],[-73.96181,40.78032],[-73.96181,40.78031],[-73.96177,40.78029],[-73.9617,40.78027],[-73.96206,40.77978],[-73.96218,40.77983],[-73.96229,40.77967],[-73.96251,40.77937],[-73.9625,40.77937],[-73.96251,40.77934],[-73.96255,40.77929],[-73.96256,40.77928],[-73.96257,40.77927],[-73.96258,40.77925],[-73.96269,40.7791],[-73.96279,40.77896],[-73.9628,40.77894],[-73.96282,40.77893],[-73.96287,40.77886],[-73.96288,40.77887],[-73.9629,40.77883],[-73.96309,40.77858],[-73.96321,40.77842],[-73.96317,40.77841],[-73.96308,40.77837],[-73.96316,40.77827],[-73.96315,40.77827],[-73.96337,40.77797],[-73.96344,40.77788],[-73.96356,40.77793],[-73.96356,40.77791],[-73.9638,40.77801],[-73.96381,40.77802],[-73.96383,40.77803],[-73.96384,40.77803],[-73.96385,40.77804],[-73.96386,40.77804],[-73.96387,40.77805],[-73.96388,40.77805],[-73.96389,40.77806],[-73.9639,40.77806],[-73.96389,40.77807],[-73.96386,40.77811],[-73.96383,40.77816],[-73.96385,40.77817],[-73.96388,40.77813],[-73.96389,40.77812],[-73.96452,40.77839],[-73.96451,40.7784],[-73.96453,40.77841],[-73.96458,40.77834],[-73.96465,40.77837],[-73.9646,40.77843],[-73.96458,40.77842],[-73.96456,40.77845],[-73.96475,40.77853],[-73.96513,40.77869],[-73.96514,40.7787],[-73.96513,40.77871],[-73.96484,40.7791],[-73.96482,40.77909],[-73.96462,40.77901],[-73.96457,40.77907],[-73.96447,40.77921],[-73.9644,40.77931],[-73.96439,40.7793],[-73.96435,40.77936],[-73.96425,40.77949],[-73.96418,40.77959],[-73.96423,40.77961],[-73.96425,40.77961],[-73.96428,40.77961],[-73.96431,40.7796],[-73.96432,40.7796],[-73.96436,40.77953],[-73.96437,40.77954],[-73.96446,40.77957],[-73.96451,40.77972],[-73.96457,40.77986],[-73.96451,40.77994],[-73.96445,40.77995],[-73.96414,40.78002],[-73.96408,40.78],[-73.96404,40.77998],[-73.96409,40.77991],[-73.96408,40.77988],[-73.96407,40.77986],[-73.964,40.77983],[-73.96391,40.77995],[-73.9639,40.77998],[-73.96388,40.78],[-73.96386,40.78003],[-73.96382,40.78008],[-73.96379,40.78013],[-73.96378,40.78013],[-73.96376,40.78015],[-73.96366,40.78029],[-73.96357,40.78041],[-73.9636,40.78041],[-73.96373,40.78047],[-73.96374,40.78048],[-73.96375,40.78048],[-73.96378,40.78049],[-73.9638,40.7805],[-73.96382,40.78053],[-73.96382,40.78053],[-73.96382,40.78053],[-73.96354,40.7809],[-73.9635,40.78091],[-73.96329,40.78082],[-73.96321,40.78078],[-73.96312,40.78075],[-73.96304,40.78071]],[[-73.96343,40.77881],[-73.96342,40.7788],[-73.9634,40.77883],[-73.96337,40.77887],[-73.96352,40.77894],[-73.9636,40.77897],[-73.96365,40.7789],[-73.96362,40.77889],[-73.96343,40.77881]],[[-73.96334,40.77977],[-73.9634,40.77979],[-73.9634,40.77979],[-73.9634,40.77978],[-73.96345,40.7798],[-73.96344,40.77981],[-73.96345,40.77982],[-73.96347,40.77979],[-73.9635,40.77974],[-73.96352,40.77972],[-73.96349,40.7797],[-73.96341,40.77967],[-73.96338,40.77971],[-73.96335,40.77975],[-73.96334,40.77977]],[[-73.96238,40.77986],[-73.96241,40.77982],[-73.96243,40.77979],[-73.96235,40.77976],[-73.9623,40.77983],[-73.9623,40.77983],[-73.96238,40.77986]],[[-73.96383,40.77933],[-73.96385,40.7793],[-73.96379,40.77927],[-73.96372,40.77924],[-73.9637,40.77927],[-73.96369,40.77928],[-73.96379,40.77933],[-73.96382,40.77934],[-73.96383,40.77933]],[[-73.96268,40.7801],[-73.96254,40.78004],[-73.96252,40.78006],[-73.96263,40.78011],[-73.96266,40.78012],[-73.96267,40.7801],[-73.96268,40.7801]]]]},"properties":{"id":"met-museum","y":null,"h":87.8}},{"type":"Feature","geometry":{"type":"MultiPolygon","coordinates":[[[[-73.97746,40.76183],[-73.9772,40.76172],[-73.97712,40.76169],[-73.97707,40.76167],[-73.97697,40.76163],[-73.97697,40.76162],[-73.97712,40.76142],[-73.97735,40.76152],[-73.97755,40.76124],[-73.97766,40.76129],[-73.97812,40.76148],[-73.97812,40.76149],[-73.97795,40.76172],[-73.97791,40.76178],[-73.97799,40.76182],[-73.97796,40.76185],[-73.97788,40.76182],[-73.97778,40.76196],[-73.97759,40.76189],[-73.97746,40.76183]]]]},"properties":{"id":"moma","y":1980,"h":245}},{"type":"Feature","geometry":{"type":"MultiPolygon","coordinates":[[[[-73.97169,40.75826],[-73.97186,40.75803],[-73.97193,40.75806],[-73.97213,40.75814],[-73.97202,40.75828],[-73.97203,40.75827],[-73.97211,40.75831],[-73.97212,40.75831],[-73.97216,40.75825],[-73.97217,40.75825],[-73.97243,40.75835],[-73.97244,40.75836],[-73.97219,40.7587],[-73.97218,40.7587],[-73.97206,40.75865],[-73.97192,40.75859],[-73.97192,40.75858],[-73.97196,40.75852],[-73.97188,40.75849],[-73.97188,40.75848],[-73.97178,40.75861],[-73.97169,40.75858],[-73.97152,40.75851],[-73.97155,40.75846],[-73.97169,40.75826]]]]},"properties":{"id":"seagram","y":1958,"h":531}},{"type":"Feature","geometry":{"type":"MultiPolygon","coordinates":[[[[-73.97327,40.75944],[-73.97311,40.75965],[-73.9731,40.75966],[-73.97311,40.75967],[-73.97323,40.75971],[-73.97313,40.75985],[-73.97304,40.75997],[-73.97267,40.75981],[-73.97243,40.75971],[-73.97264,40.75943],[-73.97278,40.75923],[-73.97304,40.75934],[-73.97327,40.75944]],[[-73.97274,40.75954],[-73.97295,40.75963],[-73.97306,40.75949],[-73.97285,40.7594],[-73.97274,40.75954]]]]},"properties":{"id":"lever-house","y":1952,"h":269.4}},{"type":"Feature","geometry":{"type":"MultiPolygon","coordinates":[[[[-73.97601,40.77705],[-73.97566,40.7769],[-73.97588,40.77659],[-73.97589,40.77659],[-73.97594,40.77653],[-73.97593,40.77652],[-73.97598,40.77646],[-73.976,40.77642],[-73.97602,40.7764],[-73.97666,40.77667],[-73.97664,40.77669],[-73.97656,40.7768],[-73.97654,40.77679],[-73.97636,40.77703],[-73.97639,40.77704],[-73.97629,40.77717],[-73.97601,40.77705]],[[-73.97623,40.77681],[-73.97628,40.77675],[-73.9763,40.77676],[-73.97633,40.77677],[-73.97637,40.77672],[-73.97637,40.77672],[-73.97611,40.77661],[-73.97607,40.77667],[-73.97614,40.77669],[-73.97604,40.77682],[-73.97598,40.77679],[-73.97594,40.77684],[-73.97611,40.77692],[-73.97619,40.77695],[-73.97622,40.77694],[-73.97623,40.7769],[-73.97618,40.77688],[-73.97623,40.77681]]]]},"properties":{"id":"dakota","y":1884,"h":166.9}},{"type":"Feature","geometry":{"type":"MultiPolygon","coordinates":[[[[-73.94994,40.81003],[-73.95006,40.80987],[-73.95021,40.80993],[-73.95004,40.81017],[-73.95003,40.81019],[-73.94996,40.81028],[-73.94987,40.81041],[-73.94951,40.81026],[-73.94966,40.81006],[-73.94986,40.81014],[-73.94994,40.81003]]]]},"properties":{"id":"apollo","y":1914,"h":65.8}},{"type":"Feature","geometry":{"type":"MultiPolygon","coordinates":[[[[-73.97663,40.75891],[-73.97618,40.75872],[-73.97616,40.75875],[-73.97592,40.75865],[-73.97584,40.75862],[-73.97587,40.75858],[-73.97566,40.7585],[-73.97565,40.75849],[-73.97568,40.75844],[-73.97568,40.75843],[-73.97566,40.75843],[-73.97563,40.75841],[-73.97563,40.75838],[-73.97563,40.75838],[-73.97565,40.75836],[-73.97552,40.7583],[-73.97552,40.75829],[-73.97551,40.75827],[-73.97554,40.75823],[-73.97558,40.75822],[-73.97565,40.75825],[-73.97571,40.75827],[-73.97573,40.75824],[-73.97576,40.75823],[-73.9758,40.75824],[-73.9758,40.75825],[-73.97583,40.75824],[-73.97586,40.7582],[-73.97599,40.75825],[-73.97608,40.75829],[-73.9761,40.75826],[-73.97614,40.75827],[-73.97618,40.75829],[-73.97642,40.75839],[-73.9764,40.75842],[-73.97643,40.75843],[-73.97677,40.75857],[-73.97685,40.7586],[-73.9768,40.75866],[-73.97667,40.75885],[-73.97663,40.75891]]]]},"properties":{"id":"st-patricks","y":1910,"h":137.6}},{"type":"Feature","geometry":{"type":"MultiPolygon","coordinates":[[[[-73.99698,40.73122],[-73.99702,40.73116],[-73.99703,40.73117],[-73.99719,40.73125],[-73.99722,40.73126],[-73.99717,40.73131],[-73.99698,40.73122]]]]},"properties":{"id":"washington-square-arch","y":2013,"h":67}},{"type":"Feature","geometry":{"type":"MultiPolygon","coordinates":[[[[-74.00484,40.74876],[-74.00502,40.74852],[-74.00494,40.74849],[-74.00511,40.74825],[-74.00574,40.74852],[-74.0054,40.74899],[-74.00529,40.74894],[-74.00484,40.74876]]]]},"properties":{"id":"high-line","y":2001,"h":168}},{"type":"Feature","geometry":{"type":"MultiPolygon","coordinates":[[[[-73.97947,40.76022],[-73.97982,40.75974],[-73.97982,40.75974],[-73.98017,40.75989],[-73.98021,40.7599],[-73.9802,40.75992],[-73.98018,40.75995],[-73.97986,40.76038],[-73.97957,40.76026],[-73.97947,40.76022]]]]},"properties":{"id":"radio-city","y":1932,"h":405.9}},{"type":"Feature","geometry":{"type":"MultiPolygon","coordinates":[[[[-73.97511,40.76444],[-73.97504,40.76454],[-73.97497,40.76465],[-73.97495,40.76467],[-73.9748,40.76461],[-73.97468,40.76477],[-73.97471,40.76478],[-73.97465,40.76487],[-73.97464,40.76488],[-73.97431,40.76474],[-73.97385,40.76456],[-73.97384,40.76454],[-73.97384,40.76452],[-73.97406,40.76421],[-73.97418,40.76404],[-73.97419,40.76404],[-73.97422,40.76404],[-73.9743,40.76407],[-73.97507,40.76439],[-73.97506,40.76441],[-73.97506,40.76441],[-73.97511,40.76444]]]]},"properties":{"id":"plaza-hotel","y":1907,"h":279}},{"type":"Feature","geometry":{"type":"MultiPolygon","coordinates":[[[[-73.97983,40.76528],[-73.97969,40.76523],[-73.9795,40.76514],[-73.97982,40.76471],[-73.97985,40.76467],[-73.97992,40.76469],[-73.97992,40.76469],[-73.97992,40.76469],[-73.98026,40.76483],[-73.98033,40.76486],[-73.98006,40.76523],[-73.98003,40.76527],[-73.97998,40.76534],[-73.97997,40.76535],[-73.97991,40.76532],[-73.97983,40.76528]]]]},"properties":{"id":"carnegie-hall","y":1891,"h":181}},{"type":"Feature","geometry":{"type":"MultiPolygon","coordinates":[[[[-73.98233,40.75385],[-73.982,40.75371],[-73.98197,40.75369],[-73.98197,40.7537],[-73.98185,40.75365],[-73.98185,40.75364],[-73.98175,40.7536],[-73.98174,40.7536],[-73.98161,40.75354],[-73.98154,40.75351],[-73.98149,40.75349],[-73.98149,40.75349],[-73.98155,40.75341],[-73.98169,40.75321],[-73.98174,40.75315],[-73.98174,40.75314],[-73.98173,40.75314],[-73.98168,40.75312],[-73.98171,40.75307],[-73.98185,40.75288],[-73.98191,40.75291],[-73.98216,40.75258],[-73.98217,40.75256],[-73.98231,40.75262],[-73.98247,40.75269],[-73.98251,40.7527],[-73.98281,40.75283],[-73.98301,40.75292],[-73.98295,40.753],[-73.98296,40.753],[-73.9829,40.75309],[-73.98289,40.75308],[-73.98289,40.75309],[-73.98246,40.75368],[-73.98246,40.75368],[-73.9824,40.75376],[-73.9824,40.75376],[-73.98235,40.75382],[-73.98233,40.75385]]]]},"properties":{"id":"nypl-main","y":1940,"h":125.3}},{"type":"Feature","geometry":{"type":"MultiPolygon","coordinates":[[[[-73.99698,40.73122],[-73.99702,40.73116],[-73.99703,40.73117],[-73.99719,40.73125],[-73.99722,40.73126],[-73.99717,40.73131],[-73.99698,40.73122]]]]},"properties":{"id":"one-fifth","y":2013,"h":67}},{"type":"Feature","geometry":{"type":"MultiPolygon","coordinates":[[[[-73.98949,40.71872],[-73.98957,40.71857],[-73.98986,40.71866],[-73.98978,40.71881],[-73.98949,40.71872]]]]},"properties":{"id":"tenement-museum","y":1935,"h":48.4}},{"type":"Feature","properties":{"id":"statue-liberty","y":1886,"h":305},"geometry":{"type":"Polygon","coordinates":[[[-74.0445,40.68901],[-74.04446,40.68914],[-74.04434,40.68905],[-74.04439,40.68917],[-74.04423,40.68915],[-74.04436,40.68922],[-74.04421,40.68927],[-74.04437,40.68928],[-74.04428,40.68939],[-74.04442,40.68933],[-74.04442,40.68946],[-74.0445,40.68935],[-74.04458,40.68946],[-74.04458,40.68933],[-74.04472,40.68939],[-74.04463,40.68928],[-74.04479,40.68927],[-74.04464,40.68922],[-74.04477,40.68915],[-74.04461,40.68917],[-74.04466,40.68905],[-74.04454,40.68914],[-74.0445,40.68901]]]}},{"type":"Feature","properties":{"id":"manhattan-bridge","y":1900,"h":80},"geometry":{"type":"Polygon","coordinates":[[[-73.99437,40.71172],[-73.98579,40.70359],[-73.98609,40.70335],[-73.99467,40.71148],[-73.99437,40.71172]]]}},{"type":"Feature","properties":{"id":"williamsburg-bridge","y":1900,"h":75},"geometry":{"type":"Polygon","coordinates":[[[-73.97767,40.71416],[-73.9658,40.71352],[-73.96582,40.7132],[-73.97769,40.71384],[-73.97767,40.71416]]]}},{"type":"Feature","properties":{"id":"queensboro-bridge","y":1900,"h":80},"geometry":{"type":"Polygon","coordinates":[[[-73.962,40.75786],[-73.94499,40.75617],[-73.94503,40.75585],[-73.96204,40.75754],[-73.962,40.75786]]]}},{"type":"Feature","properties":{"id":"gw-bridge","y":1900,"h":100},"geometry":{"type":"Polygon","coordinates":[[[-73.96055,40.85178],[-73.94364,40.85181],[-73.94364,40.85149],[-73.96055,40.85146],[-73.96055,40.85178]]]}},{"type":"Feature","properties":{"id":"verrazzano-bridge","y":1900,"h":110},"geometry":{"type":"Polygon","coordinates":[[[-74.04524,40.60665],[-74.04372,40.5966],[-74.04414,40.59656],[-74.04566,40.60661],[-74.04524,40.60665]]]}}]}