{"type":"FeatureCollection","features":[{"type":"Feature","properties":{"id":"financial-district","name":"Financial District","color":"#7a3a32","blurb":"The original New Amsterdam — Manhattan south of Wall Street is the oldest part of the city, with streets that follow 17th-century Dutch cow paths rather than the 1811 grid. Wall Street itself is named for the wooden wall built across the island in 1653. The 1916 Equitable Building (still standing on Broadway) cast such a vast shadow that it triggered the country's first comprehensive zoning law."},"geometry":{"type":"Polygon","coordinates":[[[-74.0188,40.7],[-74.001,40.6993],[-74,40.706],[-74.0073,40.714],[-74.018,40.71],[-74.0188,40.7]]]}},{"type":"Feature","properties":{"id":"tribeca","name":"TriBeCa","color":"#a04a2c","blurb":"Triangle Below Canal — a 19th-century produce-and-textile warehouse district that emptied out by the 1970s. Like SoHo, it was rezoned for residential loft conversions and quickly became one of the most expensive neighborhoods in the city. Robert De Niro launched the Tribeca Film Festival here in 2002 to bring people back after 9/11."},"geometry":{"type":"Polygon","coordinates":[[[-74.0145,40.714],[-74.0073,40.714],[-74.0035,40.7195],[-74.008,40.722],[-74.0145,40.72],[-74.0145,40.714]]]}},{"type":"Feature","properties":{"id":"chinatown","name":"Chinatown","color":"#c9722c","blurb":"One of the oldest and largest Chinatowns in the West, dating to the 1870s. Its growth was capped by the 1882 Chinese Exclusion Act, which is why the neighborhood stayed compact for decades. After 1965 immigration reform it grew dramatically and now extends well into what used to be Little Italy. The street grid here predates the 1811 plan, which is why it feels labyrinthine."},"geometry":{"type":"Polygon","coordinates":[[[-74.0035,40.714],[-73.992,40.7115],[-73.9905,40.717],[-73.997,40.7195],[-74.0035,40.7195],[-74.0035,40.714]]]}},{"type":"Feature","properties":{"id":"lower-east-side","name":"Lower East Side","color":"#d6753a","blurb":"Once the most densely populated neighborhood on Earth — at its 1900 peak the LES held over 700,000 people in a few square blocks, mostly Eastern European Jewish, Italian, and Irish immigrants. The 1901 New York State Tenement House Act was passed largely in response to LES living conditions."},"geometry":{"type":"Polygon","coordinates":[[[-73.992,40.7115],[-73.976,40.711],[-73.9745,40.722],[-73.9905,40.722],[-73.9905,40.717],[-73.992,40.7115]]]}},{"type":"Feature","properties":{"id":"soho","name":"SoHo","color":"#d8954a","blurb":"SoHo (South of Houston) was a 19th-century cast-iron warehouse district that nearly became an expressway in the 1960s — until artists and Jane Jacobs–led activists fought it off. The cast-iron facades, originally a cheap mass-produced cladding for textile lofts, are now one of the largest collections of cast-iron architecture in the world."},"geometry":{"type":"Polygon","coordinates":[[[-74.008,40.7195],[-73.997,40.7195],[-73.997,40.727],[-74.007,40.728],[-74.008,40.7195]]]}},{"type":"Feature","properties":{"id":"east-village","name":"East Village","color":"#e3b13c","blurb":"For most of the 19th and 20th centuries this was the Lower East Side's northern half — a tenement district packed with German, Eastern European, and later Latino and Ukrainian immigrants. The \"East Village\" name was coined in the 1960s by realtors trying to attract Beats and bohemians. CBGB on the Bowery birthed punk rock here."},"geometry":{"type":"Polygon","coordinates":[[[-73.9905,40.722],[-73.974,40.722],[-73.971,40.734],[-73.987,40.734],[-73.9905,40.722]]]}},{"type":"Feature","properties":{"id":"west-village","name":"West Village","color":"#b8b04a","blurb":"The grid breaks down here — most of the West Village predates the 1811 Commissioners' Plan that imposed Manhattan's rectangular grid. The result is the city's most walkable, most photographed neighborhood, with crooked streets, low brownstones, and the Stonewall Inn (1969 LGBTQ+ uprising) on Christopher Street."},"geometry":{"type":"Polygon","coordinates":[[[-74.014,40.729],[-74.007,40.728],[-74,40.733],[-74,40.74],[-74.009,40.741],[-74.014,40.735],[-74.014,40.729]]]}},{"type":"Feature","properties":{"id":"meatpacking","name":"Meatpacking District","color":"#8aa055","blurb":"Until the 1990s this was a literal meatpacking district — over 250 slaughterhouses and packing plants in the early 20th century, dwindling to a handful by 2000. Cobblestone streets and loading-dock canopies remain. The transformation into a high-fashion district happened almost overnight after the High Line opened in 2009."},"geometry":{"type":"Polygon","coordinates":[[[-74.0095,40.737],[-74,40.737],[-74,40.743],[-74.009,40.743],[-74.0095,40.737]]]}},{"type":"Feature","properties":{"id":"chelsea","name":"Chelsea","color":"#5e8a78","blurb":"Originally the country estate of Clement Clarke Moore (the man who wrote \"A Visit from St. Nicholas\") in the early 1800s. Became a working-class district of Irish dockworkers and later a film-industry hub — Chelsea was home to NYC's first movie studios before Hollywood. The High Line elevated rail (1934) shut down in 1980 and reopened as a park in 2009."},"geometry":{"type":"Polygon","coordinates":[[[-74.008,40.743],[-73.992,40.743],[-73.991,40.753],[-74.004,40.756],[-74.008,40.743]]]}},{"type":"Feature","properties":{"id":"hells-kitchen","name":"Hell's Kitchen","color":"#5a90c4","blurb":"Once one of the most violent neighborhoods in the country — gang-controlled in the 1860s through the mid-20th century, immortalized in West Side Story. The name origin has many versions but is commonly traced to a rookie cop calling a riot scene \"hell,\" with his veteran partner replying \"hell's a mild climate. This is hell's kitchen.\""},"geometry":{"type":"Polygon","coordinates":[[[-74.004,40.756],[-73.987,40.753],[-73.985,40.77],[-74.003,40.77],[-74.004,40.756]]]}},{"type":"Feature","properties":{"id":"midtown","name":"Midtown","color":"#6f8597","blurb":"The world's densest concentration of skyscrapers. Most of what you see was built in two great booms: the 1920s–30s Art Deco era (Empire State, Chrysler, Rockefeller Center) and the post-war International Style (Lever House, Seagram). The 1916 Zoning Resolution is why so many Midtown towers taper as they rise."},"geometry":{"type":"Polygon","coordinates":[[[-73.991,40.747],[-73.969,40.748],[-73.968,40.7625],[-73.987,40.7625],[-73.991,40.747]]]}},{"type":"Feature","properties":{"id":"times-square","name":"Times Square","color":"#c43a7c","blurb":"Originally Longacre Square, a horse-trade district. Renamed in 1904 when The New York Times built its tower here. The first electric advertising signs appeared in 1904; by the 1930s \"the Crossroads of the World\" was synonymous with NYC nightlife. Crime-and-grime in the 70s–80s was famously cleaned up in the 90s."},"geometry":{"type":"Polygon","coordinates":[[[-73.989,40.754],[-73.987,40.753],[-73.985,40.7625],[-73.9805,40.7625],[-73.981,40.7545],[-73.989,40.754]]]}},{"type":"Feature","properties":{"id":"upper-west-side","name":"Upper West Side","color":"#9a6abf","blurb":"The UWS took off after the 1879 elevated train brought transit to the area. Beaux-Arts apartment palaces — the Dakota, Ansonia, Apthorp, San Remo — clustered along Central Park West and the avenues, attracting artists, intellectuals, and Jewish families. Lincoln Center transformed the southern end in the 1960s."},"geometry":{"type":"Polygon","coordinates":[[[-73.994,40.77],[-73.969,40.772],[-73.961,40.8],[-73.989,40.8005],[-73.994,40.77]]]}},{"type":"Feature","properties":{"id":"upper-east-side","name":"Upper East Side","color":"#a8456c","blurb":"The traditional home of \"old money\" New York. The stretch of Fifth Avenue along Central Park is called Millionaires' Row — the Frick, Carnegie, and Vanderbilt mansions all stood here, several preserved as museums. East of Park Avenue, brownstone blocks like Yorkville historically housed German and Eastern European immigrants."},"geometry":{"type":"Polygon","coordinates":[[[-73.969,40.7625],[-73.942,40.766],[-73.9405,40.791],[-73.961,40.79],[-73.969,40.7625]]]}},{"type":"Feature","properties":{"id":"harlem","name":"Harlem","color":"#c43a3a","blurb":"Established as a 17th-century Dutch village (Nieuw Haarlem), Harlem became Manhattan's premier Black cultural center after the 1900s Great Migration. The Harlem Renaissance of the 1920s — Langston Hughes, Zora Neale Hurston, Duke Ellington at the Cotton Club — made it one of the most influential cultural districts in the world. The 125th Street corridor and Apollo Theater remain its main stage."},"geometry":{"type":"Polygon","coordinates":[[[-73.962,40.8005],[-73.9305,40.799],[-73.929,40.826],[-73.958,40.826],[-73.962,40.8005]]]}}]}