{"type":"FeatureCollection","features":[{"type":"Feature","properties":{"id":"buckingham-palace","name":"Buckingham Palace","h":79,"color":"#d4b064"},"geometry":{"type":"Polygon","coordinates":[[[-0.142225,51.501756],[-0.141315,51.500895],[-0.141579,51.500786],[-0.14125,51.500474],[-0.1414,51.500412],[-0.141727,51.500719],[-0.14191,51.500643],[-0.141841,51.500575],[-0.141934,51.500537],[-0.142003,51.500604],[-0.142175,51.500534],[-0.141999,51.500364],[-0.142209,51.500277],[-0.142143,51.500213],[-0.14231,51.500145],[-0.14228,51.500115],[-0.141967,51.500244],[-0.142054,51.50033],[-0.141993,51.500355],[-0.141825,51.500198],[-0.142531,51.49991],[-0.142384,51.49977],[-0.143051,51.499494],[-0.143178,51.49962],[-0.143133,51.499638],[-0.142894,51.49986],[-0.142798,51.499898],[-0.143127,51.500225],[-0.14282,51.500356],[-0.143188,51.5007],[-0.143278,51.500693],[-0.143304,51.500702],[-0.143325,51.500714],[-0.14334,51.50073],[-0.143348,51.50075],[-0.143305,51.500811],[-0.143672,51.501153],[-0.143896,51.501062],[-0.144001,51.501164],[-0.14368,51.501293],[-0.143577,51.501194],[-0.143334,51.501292],[-0.143304,51.50135],[-0.143254,51.501325],[-0.142534,51.50162],[-0.142844,51.50191],[-0.142787,51.501933],[-0.142484,51.50165],[-0.142225,51.501756]],[[-0.143118,51.501105],[-0.14306,51.501129],[-0.143182,51.501243],[-0.14324,51.501219],[-0.143118,51.501105]],[[-0.141696,51.501002],[-0.142276,51.501548],[-0.143018,51.501241],[-0.142438,51.500697],[-0.141696,51.501002]]]}},{"type":"Feature","properties":{"id":"palace-westminster","name":"Palace of Westminster","h":316,"color":"#d4b064"},"geometry":{"type":"Polygon","coordinates":[[[-0.125915,51.500299],[-0.124821,51.500179],[-0.124709,51.500817],[-0.124603,51.500814],[-0.124617,51.500752],[-0.124476,51.500743],[-0.124508,51.500573],[-0.12403,51.500534],[-0.124044,51.500459],[-0.124465,51.500491],[-0.124525,51.500192],[-0.124168,51.500164],[-0.124126,51.500397],[-0.124035,51.50039],[-0.124007,51.500535],[-0.123646,51.500509],[-0.123698,51.500246],[-0.123863,51.50026],[-0.124222,51.498415],[-0.124073,51.498407],[-0.124121,51.498144],[-0.125191,51.498227],[-0.125246,51.498212],[-0.125349,51.49824],[-0.125423,51.498256],[-0.12551,51.498217],[-0.125514,51.498222],[-0.125473,51.498372],[-0.125525,51.49842],[-0.125493,51.498445],[-0.125301,51.499384],[-0.125784,51.499442],[-0.125562,51.500111],[-0.125941,51.500159],[-0.125915,51.500299]],[[-0.124768,51.500107],[-0.124919,51.500124],[-0.125016,51.499829],[-0.124831,51.499808],[-0.124768,51.500107]],[[-0.12519,51.499531],[-0.1252,51.499497],[-0.124977,51.499471],[-0.124967,51.499505],[-0.12519,51.499531]],[[-0.124236,51.500073],[-0.124391,51.500085],[-0.124456,51.499758],[-0.124301,51.499747],[-0.124236,51.500073]],[[-0.124826,51.499658],[-0.124873,51.499662],[-0.124906,51.499504],[-0.12486,51.499501],[-0.124826,51.499658]],[[-0.124955,51.49929],[-0.124937,51.499367],[-0.125154,51.499386],[-0.125172,51.49931],[-0.124955,51.49929]],[[-0.124997,51.499552],[-0.124933,51.499724],[-0.125104,51.499744],[-0.12516,51.499571],[-0.124997,51.499552]],[[-0.12501,51.498769],[-0.124963,51.499005],[-0.125131,51.499018],[-0.125175,51.498782],[-0.12501,51.498769]],[[-0.124567,51.499284],[-0.124688,51.498691],[-0.12455,51.49868],[-0.124432,51.499274],[-0.124567,51.499284]],[[-0.124653,51.500646],[-0.124684,51.500648],[-0.124723,51.500453],[-0.124692,51.500451],[-0.124653,51.500646]],[[-0.124825,51.498269],[-0.124498,51.498243],[-0.124432,51.498567],[-0.12476,51.498593],[-0.124825,51.498269]],[[-0.125218,51.498636],[-0.125247,51.498479],[-0.125032,51.498462],[-0.124999,51.498619],[-0.125218,51.498636]]]}},{"type":"Feature","properties":{"id":"elizabeth-tower","name":"Big Ben","h":316,"color":"#86F2FF"},"geometry":{"type":"Polygon","coordinates":[[[-0.12474,51.5008],[-0.12453,51.5008],[-0.12453,51.50064],[-0.12474,51.50064],[-0.12474,51.5008]]]}},{"type":"Feature","properties":{"id":"westminster-abbey","name":"Westminster Abbey","h":225,"color":"#d4b064"},"geometry":{"type":"Polygon","coordinates":[[[-0.128231,51.498417],[-0.128227,51.498262],[-0.127619,51.498246],[-0.127584,51.498393],[-0.127453,51.49838],[-0.12759,51.497801],[-0.127847,51.497829],[-0.127826,51.497941],[-0.127695,51.497931],[-0.127639,51.498161],[-0.127833,51.498167],[-0.127887,51.497868],[-0.128206,51.497913],[-0.128421,51.497956],[-0.1286,51.497968],[-0.128709,51.497566],[-0.128753,51.497536],[-0.129344,51.497507],[-0.12938,51.497525],[-0.129405,51.497658],[-0.129475,51.497857],[-0.129737,51.498043],[-0.129781,51.498091],[-0.129867,51.498309],[-0.129873,51.498383],[-0.129814,51.498626],[-0.129695,51.498614],[-0.129641,51.498744],[-0.129755,51.49876],[-0.129597,51.499318],[-0.128764,51.499263],[-0.128737,51.499422],[-0.128612,51.499416],[-0.128594,51.499592],[-0.127506,51.499533],[-0.12748,51.499721],[-0.127079,51.499698],[-0.127096,51.499561],[-0.126987,51.499555],[-0.126935,51.499558],[-0.12675,51.499495],[-0.12672,51.49947],[-0.126596,51.499469],[-0.126395,51.499446],[-0.126304,51.49942],[-0.126261,51.499387],[-0.126246,51.499337],[-0.12627,51.499295],[-0.126371,51.499244],[-0.126629,51.499264],[-0.126851,51.499258],[-0.126987,51.499175],[-0.127162,51.499177],[-0.127171,51.499124],[-0.126991,51.499112],[-0.126922,51.499054],[-0.126937,51.498974],[-0.127026,51.49893],[-0.12715,51.498939],[-0.127215,51.498994],[-0.127279,51.499005],[-0.127283,51.498983],[-0.127198,51.498976],[-0.127225,51.498809],[-0.126535,51.498761],[-0.126558,51.498668],[-0.126944,51.498697],[-0.126965,51.498592],[-0.126584,51.49856],[-0.126621,51.498405],[-0.1276,51.498487],[-0.127583,51.498565],[-0.128191,51.498602],[-0.128199,51.498548],[-0.128182,51.498509],[-0.128366,51.498482],[-0.128373,51.498424],[-0.128231,51.498417]],[[-0.127325,51.498804],[-0.127333,51.498752],[-0.127231,51.498746],[-0.127223,51.498797],[-0.127325,51.498804]],[[-0.12816,51.497935],[-0.128011,51.497933],[-0.128005,51.49817],[-0.128154,51.498171],[-0.12816,51.497935]],[[-0.128206,51.498189],[-0.128305,51.49819],[-0.128311,51.498002],[-0.128211,51.498001],[-0.128206,51.498189]],[[-0.128757,51.497812],[-0.128804,51.497816],[-0.12882,51.497752],[-0.128773,51.497748],[-0.128757,51.497812]],[[-0.128978,51.497989],[-0.129035,51.497994],[-0.129045,51.497942],[-0.128989,51.497937],[-0.128978,51.497989]],[[-0.128827,51.497642],[-0.128836,51.497723],[-0.12921,51.497706],[-0.129201,51.497625],[-0.128827,51.497642]],[[-0.129344,51.499188],[-0.129437,51.499194],[-0.129449,51.499124],[-0.129356,51.499118],[-0.129344,51.499188]],[[-0.127199,51.498716],[-0.127229,51.498573],[-0.127026,51.498556],[-0.126996,51.4987],[-0.127199,51.498716]],[[-0.127591,51.498906],[-0.127828,51.498922],[-0.12786,51.498743],[-0.12762,51.498728],[-0.127591,51.498906]],[[-0.128341,51.499262],[-0.128515,51.499273],[-0.128543,51.499093],[-0.128369,51.499083],[-0.128341,51.499262]],[[-0.128072,51.499001],[-0.127589,51.498965],[-0.127547,51.499253],[-0.128033,51.49928],[-0.128072,51.499001]],[[-0.129543,51.498892],[-0.129591,51.4989],[-0.129626,51.498823],[-0.129578,51.498814],[-0.129543,51.498892]],[[-0.129513,51.498994],[-0.129466,51.498988],[-0.129441,51.499055],[-0.129488,51.499062],[-0.129513,51.498994]],[[-0.126694,51.498453],[-0.126673,51.498562],[-0.126875,51.498577],[-0.126896,51.498468],[-0.126694,51.498453]],[[-0.128123,51.499307],[-0.128216,51.499313],[-0.128256,51.499051],[-0.128164,51.499045],[-0.128123,51.499307]]]}},{"type":"Feature","properties":{"id":"british-museum","name":"British Museum","h":70,"color":"#d4b064"},"geometry":{"type":"Polygon","coordinates":[[[-0.127495,51.518667],[-0.127528,51.518697],[-0.127792,51.518578],[-0.12847,51.519178],[-0.128605,51.51912],[-0.128453,51.518982],[-0.128354,51.519025],[-0.128232,51.518916],[-0.12832,51.518879],[-0.127454,51.518093],[-0.127298,51.518157],[-0.127199,51.518073],[-0.12715,51.518084],[-0.127091,51.51799],[-0.127494,51.517898],[-0.129416,51.519666],[-0.129035,51.519827],[-0.128962,51.519762],[-0.129112,51.519699],[-0.129172,51.519674],[-0.129152,51.519672],[-0.129131,51.519669],[-0.129132,51.519633],[-0.128588,51.519169],[-0.128227,51.519324],[-0.128434,51.519508],[-0.128592,51.519439],[-0.128786,51.519612],[-0.128671,51.519662],[-0.128867,51.519839],[-0.128622,51.519945],[-0.128477,51.519814],[-0.1286,51.51976],[-0.128549,51.519714],[-0.127878,51.520007],[-0.127708,51.519855],[-0.127678,51.519868],[-0.12788,51.520049],[-0.128411,51.519817],[-0.128567,51.519957],[-0.127225,51.520544],[-0.126812,51.520216],[-0.125886,51.519393],[-0.125493,51.519567],[-0.124841,51.518991],[-0.125051,51.518899],[-0.125318,51.519135],[-0.125509,51.519051],[-0.125443,51.518992],[-0.125757,51.518857],[-0.12593,51.519014],[-0.126652,51.518703],[-0.126477,51.518542],[-0.126792,51.518408],[-0.12687,51.518479],[-0.127066,51.518396],[-0.126788,51.518148],[-0.126957,51.518074],[-0.127264,51.518347],[-0.127377,51.518299],[-0.127693,51.518582],[-0.127495,51.518667]],[[-0.127494,51.520187],[-0.127535,51.520169],[-0.127481,51.520121],[-0.12744,51.520139],[-0.127494,51.520187]],[[-0.126992,51.520257],[-0.127423,51.520068],[-0.127359,51.520009],[-0.126882,51.52022],[-0.127033,51.520337],[-0.127109,51.520385],[-0.127336,51.520288],[-0.127312,51.520267],[-0.127104,51.520356],[-0.126992,51.520257]]]}},{"type":"Feature","properties":{"id":"somerset-house","name":"Somerset House","h":65,"color":"#d4b064"},"geometry":{"type":"Polygon","coordinates":[[[-0.11865,51.51138],[-0.11681,51.51139],[-0.11673,51.51065],[-0.11862,51.51063],[-0.11865,51.51138]],[[-0.11823,51.51118],[-0.11717,51.51118],[-0.11716,51.51083],[-0.11822,51.51083],[-0.11823,51.51118]]]}},{"type":"Feature","properties":{"id":"st-pauls","name":"St Paul's Cathedral","h":365,"color":"#d4b064"},"geometry":{"type":"Polygon","coordinates":[[[-0.099506,51.513467],[-0.099576,51.513913],[-0.098618,51.51397],[-0.098638,51.514095],[-0.098475,51.514105],[-0.098436,51.514155],[-0.09838,51.514169],[-0.098374,51.514118],[-0.098104,51.514131],[-0.098083,51.513979],[-0.097444,51.514014],[-0.097431,51.513921],[-0.097339,51.513788],[-0.097403,51.513757],[-0.097385,51.513668],[-0.098022,51.513618],[-0.097993,51.513468],[-0.098152,51.51346],[-0.098168,51.513435],[-0.098178,51.513424],[-0.098185,51.513417],[-0.098194,51.513411],[-0.098204,51.513406],[-0.098212,51.513402],[-0.098228,51.513399],[-0.098243,51.513396],[-0.098257,51.513395],[-0.098269,51.513395],[-0.098278,51.513395],[-0.098292,51.513398],[-0.098306,51.513402],[-0.098322,51.513409],[-0.098334,51.513415],[-0.098343,51.513422],[-0.09835,51.513429],[-0.098365,51.513447],[-0.098563,51.513436],[-0.098589,51.513596],[-0.099054,51.513565],[-0.099042,51.513495],[-0.099506,51.513467]]]}},{"type":"Feature","properties":{"id":"tate-modern","name":"Tate Modern","h":325,"color":"#d4b064"},"geometry":{"type":"Polygon","coordinates":[[[-0.098097,51.507027],[-0.09876,51.507061],[-0.098746,51.507159],[-0.098272,51.507133],[-0.098262,51.507201],[-0.099736,51.507277],[-0.100125,51.50689],[-0.100585,51.507071],[-0.100631,51.507073],[-0.10048,51.507427],[-0.100475,51.507467],[-0.100581,51.507474],[-0.100519,51.507972],[-0.098146,51.507867],[-0.098219,51.507326],[-0.098065,51.507317],[-0.098097,51.507027]]]}},{"type":"Feature","properties":{"id":"the-shard","name":"The Shard","h":1016,"color":"#d4b064"},"geometry":{"type":"Polygon","coordinates":[[[-0.08684,51.50467],[-0.08675,51.50435],[-0.08649,51.5043],[-0.08627,51.50447],[-0.08639,51.50472],[-0.08666,51.50478],[-0.08684,51.50467]]]}},{"type":"Feature","properties":{"id":"guildhall","name":"Guildhall","h":75,"color":"#d4b064"},"geometry":{"type":"Polygon","coordinates":[[[-0.092471,51.516162],[-0.092472,51.51636],[-0.091483,51.516357],[-0.091492,51.516059],[-0.091224,51.516061],[-0.091204,51.516035],[-0.091204,51.515915],[-0.09114,51.515929],[-0.091067,51.51589],[-0.091084,51.515422],[-0.091453,51.515435],[-0.091744,51.515444],[-0.091735,51.515727],[-0.092715,51.515732],[-0.092715,51.51568],[-0.092563,51.515669],[-0.092566,51.5156],[-0.092636,51.515606],[-0.092644,51.515605],[-0.09268,51.5156],[-0.092704,51.515616],[-0.092715,51.515615],[-0.092714,51.515427],[-0.092926,51.515425],[-0.092979,51.515462],[-0.092966,51.516247],[-0.092598,51.516243],[-0.092598,51.516165],[-0.092471,51.516162]],[[-0.092259,51.516192],[-0.092259,51.516099],[-0.091687,51.516098],[-0.091687,51.516191],[-0.092259,51.516192]]]}},{"type":"Feature","properties":{"id":"mansion-house","name":"Mansion House","h":58,"color":"#d4b064"},"geometry":{"type":"Polygon","coordinates":[[[-0.089614,51.512578],[-0.089196,51.512442],[-0.08912,51.512528],[-0.089426,51.512636],[-0.089324,51.512797],[-0.088591,51.512591],[-0.089089,51.512006],[-0.089282,51.511698],[-0.089372,51.511527],[-0.089551,51.511558],[-0.089386,51.511891],[-0.089706,51.511979],[-0.089725,51.511982],[-0.089744,51.511983],[-0.089763,51.511982],[-0.089791,51.511976],[-0.089812,51.511968],[-0.08983,51.511959],[-0.089841,51.511949],[-0.08985,51.511939],[-0.089855,51.51193],[-0.089882,51.511854],[-0.089563,51.511773],[-0.08954,51.51175],[-0.08963,51.511574],[-0.089966,51.511632],[-0.089998,51.511633],[-0.090029,51.511639],[-0.090061,51.511649],[-0.090467,51.511727],[-0.090624,51.511806],[-0.090288,51.512368],[-0.090196,51.512454],[-0.090181,51.512463],[-0.090151,51.512479],[-0.09009,51.51248],[-0.089969,51.512458],[-0.08917,51.512243],[-0.089117,51.512312],[-0.090139,51.512604],[-0.090031,51.512769],[-0.089889,51.512733],[-0.08957,51.513286],[-0.089149,51.513194],[-0.089467,51.512629],[-0.089568,51.512652],[-0.089614,51.512578]]]}},{"type":"Feature","properties":{"id":"royal-exchange","name":"Royal Exchange","h":70,"color":"#d4b064"},"geometry":{"type":"Polygon","coordinates":[[[-0.086585,51.513062],[-0.086602,51.513035],[-0.08637,51.51298],[-0.086535,51.512701],[-0.086675,51.512521],[-0.086725,51.512511],[-0.087088,51.512671],[-0.086988,51.512801],[-0.086877,51.512931],[-0.086602,51.512865],[-0.086574,51.51291],[-0.086913,51.512979],[-0.086909,51.513144],[-0.086969,51.513144],[-0.086969,51.512987],[-0.087008,51.512977],[-0.086962,51.512924],[-0.086993,51.512875],[-0.087135,51.512703],[-0.088113,51.51298],[-0.088663,51.513199],[-0.088582,51.513274],[-0.088516,51.513303],[-0.087262,51.513243],[-0.086932,51.513261],[-0.086633,51.513287],[-0.086215,51.513304],[-0.08624,51.513206],[-0.086353,51.513003],[-0.086585,51.513062]],[[-0.087436,51.512893],[-0.087342,51.512878],[-0.087244,51.513108],[-0.087337,51.513123],[-0.087436,51.512893]]]}},{"type":"Feature","properties":{"id":"lloyds","name":"Lloyd's Building","h":289,"color":"#d4b064"},"geometry":{"type":"Polygon","coordinates":[[[-0.08355,51.51307],[-0.08302,51.51313],[-0.08283,51.51281],[-0.083,51.51256],[-0.08345,51.51259],[-0.08355,51.51307]]]}},{"type":"Feature","properties":{"id":"leadenhall","name":"The Leadenhall Building","h":737,"color":"#d4b064"},"geometry":{"type":"Polygon","coordinates":[[[-0.082603,51.514139],[-0.081992,51.514138],[-0.081992,51.514054],[-0.082178,51.514054],[-0.082178,51.514018],[-0.081947,51.514018],[-0.081949,51.513539],[-0.082648,51.51354],[-0.082646,51.514019],[-0.082416,51.514018],[-0.082416,51.514054],[-0.082603,51.514055],[-0.082603,51.514139]]]}},{"type":"Feature","properties":{"id":"walkie-talkie","name":"20 Fenchurch Street","h":525,"color":"#d4b064"},"geometry":{"type":"Polygon","coordinates":[[[-0.08354,51.511526],[-0.083205,51.511494],[-0.083206,51.511334],[-0.083223,51.511244],[-0.083262,51.511139],[-0.08331,51.511055],[-0.083438,51.511071],[-0.083471,51.511063],[-0.083473,51.511063],[-0.083476,51.511062],[-0.083479,51.511063],[-0.083481,51.511063],[-0.083524,51.511076],[-0.083562,51.511081],[-0.083595,51.511076],[-0.083598,51.511076],[-0.083601,51.511076],[-0.083604,51.511077],[-0.083607,51.511078],[-0.083631,51.511089],[-0.08368,51.511092],[-0.083716,51.511087],[-0.083719,51.511086],[-0.083722,51.511087],[-0.083724,51.511087],[-0.083726,51.511088],[-0.083728,51.511088],[-0.083752,51.511102],[-0.083873,51.511111],[-0.083874,51.511204],[-0.083855,51.511311],[-0.083823,51.511401],[-0.083739,51.511553],[-0.08354,51.511526]]]}},{"type":"Feature","properties":{"id":"barbican-centre","name":"Barbican Centre","h":132,"color":"#d4b064"},"geometry":{"type":"Polygon","coordinates":[[[-0.0942,51.52058],[-0.09247,51.52058],[-0.09247,51.51978],[-0.09302,51.51965],[-0.09416,51.51975],[-0.0942,51.52058]]]}},{"type":"Feature","properties":{"id":"tower-of-london","name":"Tower of London","h":90,"color":"#d4b064"},"geometry":{"type":"Polygon","coordinates":[[[-0.075844,51.507899],[-0.076293,51.507925],[-0.076244,51.508244],[-0.075798,51.508217],[-0.075835,51.508027],[-0.075809,51.508016],[-0.075801,51.508012],[-0.075798,51.50801],[-0.075791,51.508004],[-0.075783,51.507995],[-0.075776,51.507985],[-0.075772,51.507976],[-0.07577,51.507969],[-0.075769,51.507948],[-0.075774,51.507935],[-0.07578,51.507926],[-0.075787,51.507918],[-0.075799,51.507909],[-0.07581,51.507903],[-0.075815,51.507902],[-0.075825,51.507901],[-0.075844,51.507899]]]}},{"type":"Feature","properties":{"id":"tower-bridge","name":"Tower Bridge","h":213,"color":"#d4b064"},"geometry":{"type":"Polygon","coordinates":[[[-0.07593,51.50669],[-0.07523,51.50383],[-0.07499,51.50386],[-0.07569,51.50673],[-0.07593,51.50669]]]}},{"type":"Feature","properties":{"id":"london-bridge","name":"London Bridge","h":45,"color":"#d4b064"},"geometry":{"type":"Polygon","coordinates":[[[-0.08815,51.5097],[-0.08679,51.50735],[-0.08655,51.50741],[-0.08791,51.50976],[-0.08815,51.5097]]]}}]}