{
  "type": "FeatureCollection",
  "features": [
    {
      "type": "Feature",
      "properties": { "id": "salesforce-tower", "name": "Salesforce Tower", "y": 2018, "h": 1070 },
      "geometry": { "type": "Polygon", "coordinates": [[[-122.39665,37.79005],[-122.39575,37.79005],[-122.39575,37.78935],[-122.39665,37.78935],[-122.39665,37.79005]]] }
    },
    {
      "type": "Feature",
      "properties": { "id": "transamerica-pyramid", "name": "Transamerica Pyramid", "y": 1972, "h": 853 },
      "geometry": { "type": "Polygon", "coordinates": [[[-122.40325,37.79558],[-122.40235,37.79558],[-122.40235,37.79482],[-122.40325,37.79482],[-122.40325,37.79558]]] }
    },
    {
      "type": "Feature",
      "properties": { "id": "ferry-building", "name": "Ferry Building", "y": 1898, "h": 245 },
      "geometry": { "type": "Polygon", "coordinates": [[[-122.39455,37.79605],[-122.39280,37.79605],[-122.39280,37.79508],[-122.39455,37.79508],[-122.39455,37.79605]]] }
    },
    {
      "type": "Feature",
      "properties": { "id": "coit-tower", "name": "Coit Tower", "y": 1933, "h": 210 },
      "geometry": { "type": "Polygon", "coordinates": [[[-122.40610,37.80262],[-122.40550,37.80262],[-122.40550,37.80216],[-122.40610,37.80216],[-122.40610,37.80262]]] }
    },
    {
      "type": "Feature",
      "properties": { "id": "sf-city-hall", "name": "San Francisco City Hall", "y": 1915, "h": 307 },
      "geometry": { "type": "Polygon", "coordinates": [[[-122.42040,37.77995],[-122.41825,37.77995],[-122.41825,37.77872],[-122.42040,37.77872],[-122.42040,37.77995]]] }
    },
    {
      "type": "Feature",
      "properties": { "id": "palace-of-fine-arts", "name": "Palace of Fine Arts", "y": 1915, "h": 162 },
      "geometry": { "type": "Polygon", "coordinates": [[[-122.44905,37.80338],[-122.44770,37.80338],[-122.44770,37.80242],[-122.44905,37.80242],[-122.44905,37.80338]]] }
    },
    {
      "type": "Feature",
      "properties": { "id": "painted-ladies", "name": "Painted Ladies", "y": 1895, "h": 45 },
      "geometry": { "type": "Polygon", "coordinates": [[[-122.43375,37.77673],[-122.43225,37.77673],[-122.43225,37.77612],[-122.43375,37.77612],[-122.43375,37.77673]]] }
    },
    {
      "type": "Feature",
      "properties": { "id": "golden-gate-bridge", "name": "Golden Gate Bridge", "y": 1937, "h": 746 },
      "geometry": { "type": "Polygon", "coordinates": [[[-122.479788,37.828848],[-122.479409,37.825586],[-122.479407,37.825573],[-122.477545,37.809635],[-122.477554,37.809517],[-122.477547,37.80933],[-122.477582,37.80933],[-122.477539,37.808975],[-122.477355,37.808989],[-122.47734,37.808957],[-122.477275,37.808828],[-122.477208,37.80871],[-122.477132,37.80859],[-122.477052,37.808479],[-122.476965,37.808369],[-122.476669,37.808],[-122.476654,37.808009],[-122.476639,37.808018],[-122.476575,37.808061],[-122.476473,37.80813],[-122.476411,37.808172],[-122.476395,37.808182],[-122.476494,37.808281],[-122.476591,37.808382],[-122.476689,37.808495],[-122.47677,37.808598],[-122.476844,37.808701],[-122.476914,37.80881],[-122.476976,37.808921],[-122.477037,37.809042],[-122.477086,37.809151],[-122.477122,37.80925],[-122.477153,37.809347],[-122.477179,37.809452],[-122.4772,37.809556],[-122.477216,37.809658],[-122.479085,37.825634],[-122.479093,37.825683],[-122.479462,37.828856],[-122.4794,37.828862],[-122.479502,37.829532],[-122.47947,37.829536],[-122.479485,37.829603],[-122.479554,37.8296],[-122.479631,37.830299],[-122.479649,37.830448],[-122.47967,37.830608],[-122.47969,37.830746],[-122.479718,37.830878],[-122.479754,37.83102],[-122.479799,37.831152],[-122.47985,37.831285],[-122.479902,37.831414],[-122.479965,37.831546],[-122.480035,37.831672],[-122.480123,37.831814],[-122.480211,37.831937],[-122.480303,37.832055],[-122.480405,37.832166],[-122.480512,37.832279],[-122.480588,37.832346],[-122.480593,37.83235],[-122.480721,37.83233],[-122.480852,37.832308],[-122.480892,37.832299],[-122.480952,37.832255],[-122.480967,37.832244],[-122.48084,37.83213],[-122.480717,37.832008],[-122.480621,37.831905],[-122.480525,37.831791],[-122.480445,37.831686],[-122.480428,37.831662],[-122.480355,37.831554],[-122.480286,37.83144],[-122.480223,37.831324],[-122.480167,37.831205],[-122.480113,37.831081],[-122.480072,37.83096],[-122.480038,37.830827],[-122.480009,37.8307],[-122.479988,37.830576],[-122.479968,37.830418],[-122.47995,37.83027],[-122.479881,37.829574],[-122.479998,37.829568],[-122.479924,37.829193],[-122.479891,37.829191],[-122.479845,37.8289],[-122.479833,37.828848],[-122.479788,37.828848]]] }
    },
    {
      "type": "Feature",
      "properties": { "id": "bay-bridge", "name": "San Francisco-Oakland Bay Bridge", "y": 1936, "h": 526 },
      "geometry": { "type": "Polygon", "coordinates": [[[-122.36644,37.808995],[-122.366243,37.808863],[-122.367187,37.808001],[-122.385778,37.790651],[-122.388321,37.788277],[-122.388272,37.788245],[-122.388347,37.788174],[-122.388384,37.788199],[-122.39024,37.786464],[-122.390238,37.786463],[-122.390472,37.786245],[-122.390447,37.786229],[-122.390579,37.786105],[-122.390839,37.786279],[-122.390707,37.786402],[-122.390691,37.786391],[-122.390457,37.786609],[-122.390452,37.786606],[-122.388595,37.788338],[-122.38863,37.788361],[-122.388555,37.788432],[-122.388508,37.788401],[-122.385965,37.790774],[-122.367374,37.808126],[-122.367171,37.808314],[-122.366837,37.808626],[-122.36644,37.808995]]] }
    },
    {
      "type": "Feature",
      "properties": { "id": "sentinel-building", "name": "Sentinel Building", "y": 1907, "h": 120 },
      "geometry": { "type": "Polygon", "coordinates": [[[-122.40625,37.79798],[-122.40550,37.79778],[-122.40592,37.79725],[-122.40625,37.79798]]] }
    },
    {
      "type": "Feature",
      "properties": { "id": "555-california", "name": "555 California Street", "y": 1969, "h": 779 },
      "geometry": { "type": "Polygon", "coordinates": [[[-122.40382,37.79335],[-122.40278,37.79335],[-122.40278,37.79250],[-122.40382,37.79250],[-122.40382,37.79335]]] }
    },
    {
      "type": "Feature",
      "properties": { "id": "palace-hotel", "name": "Palace Hotel", "y": 1909, "h": 120 },
      "geometry": { "type": "Polygon", "coordinates": [[[-122.40245,37.78905],[-122.40095,37.78905],[-122.40095,37.78805],[-122.40245,37.78805],[-122.40245,37.78905]]] }
    }
  ]
}
